*******************************************************************************
Ephemeris / WWW_USER Mon Mar 10 07:14:54 2025 Pasadena, USA      / Horizons    
*******************************************************************************
Target body name: (2018 OG)                       {source: JPL#12}
Center body name: Earth (399)                     {source: DE441}
Center-site name: Mauna Kea
*******************************************************************************
Start time      : A.D. 2018-Aug-28 04:50:00.0000 UT      
Stop  time      : A.D. 2018-Aug-28 15:56:00.0000 UT      
Step-size       : 1 minutes
*******************************************************************************
Target pole/equ : undefined
Target radii    : undefined                                                    
Center geodetic : 204.5278, 19.8260847, 4.21024   {E-lon(deg),Lat(deg),Alt(km)}
Center cylindric: 204.5278, 6006.35451, 2151.0229 {E-lon(deg),Dxy(km),Dz(km)}
Center pole/equ : ITRF93                          {East-longitude positive}
Center radii    : 6378.137, 6378.137, 6356.752 km {Equator_a, b, pole_c}       
Target primary  : Sun
Vis. interferer : MOON (R_eq= 1737.400) km        {source: DE441}
Rel. light bend : Sun                             {source: DE441}
Rel. lght bnd GM: 1.3271E+11 km^3/s^2                                          
Small-body perts: Yes                             {source: SB441-N16}
Atmos refraction: NO (AIRLESS)
RA format       : HMS
Time format     : CAL 
Calendar mode   : Mixed Julian/Gregorian
RTS-only print  : NO       
EOP file        : eop.250307.p250603                                           
EOP coverage    : DATA-BASED 1962-JAN-20 TO 2025-MAR-07. PREDICTS-> 2025-JUN-02
Units conversion: 1 au= 149597870.700 km, c= 299792.458 km/s, 1 day= 86400.0 s 
Table cut-offs 1: Elevation (-90.0deg=NO ),Airmass (>38.000=NO), Daylight (YES)
Table cut-offs 2: Solar elongation (  0.0,180.0=NO ),Local Hour Angle( 0.0=NO )
Table cut-offs 3: RA/DEC angular rate (     0.0=NO )                           
*******************************************************************************
Initial IAU76/J2000 heliocentric ecliptic osculating elements (au, days, deg.):
  EPOCH=  2458389.5 ! 2018-Sep-28.00 (TDB)         Residual RMS= .17662        
   EC= .5817218672922059   QR= .9873203561553971   TP= 2458366.942240702       
   OM= 131.0345430575832   W=  220.7633135105564   IN= 9.123860581277821       
  Equivalent ICRF heliocentric cartesian coordinates (au, au/d):
   X= 9.625437195102586E-01  Y= 3.686106454146055E-01  Z=-5.877845729655690E-03
  VX=-3.555418036941177E-03 VY= 1.979451357965206E-02 VZ= 6.659913004156397E-03
Asteroid physical parameters (km, seconds, rotational period in hours):        
   GM= n.a.                RAD= n.a.               ROTPER= n.a.                
   H= 23.6                 G= .150                 B-V= n.a.                   
                           ALBEDO= n.a.            STYP= n.a.                  
*******************************************************************************
 Date__(UT)__HR:MN     R.A._________(ICRF)_________DEC
******************************************************
$$SOE
 2018-Aug-28 06:53  m  05 19 44.233615 -11 36 28.56601
 2018-Aug-28 06:54  m  05 19 44.441824 -11 36 27.90817
 2018-Aug-28 06:55  m  05 19 44.649991 -11 36 27.25056
 2018-Aug-28 06:56  m  05 19 44.858115 -11 36 26.59317
 2018-Aug-28 06:57  m  05 19 45.066196 -11 36 25.93602
 2018-Aug-28 06:58  m  05 19 45.274234 -11 36 25.27910
 2018-Aug-28 06:59  m  05 19 45.482228 -11 36 24.62241
 2018-Aug-28 07:00  m  05 19 45.690179 -11 36 23.96594
 2018-Aug-28 07:01  m  05 19 45.898085 -11 36 23.30971
 2018-Aug-28 07:02  m  05 19 46.105947 -11 36 22.65370
 2018-Aug-28 07:03  m  05 19 46.313763 -11 36 21.99792
 2018-Aug-28 07:04  m  05 19 46.521535 -11 36 21.34237
 2018-Aug-28 07:05  m  05 19 46.729262 -11 36 20.68704
 2018-Aug-28 07:06  m  05 19 46.936943 -11 36 20.03194
 2018-Aug-28 07:07  m  05 19 47.144578 -11 36 19.37707
 2018-Aug-28 07:08  m  05 19 47.352166 -11 36 18.72242
 2018-Aug-28 07:09  m  05 19 47.559708 -11 36 18.06800
 2018-Aug-28 07:10  m  05 19 47.767204 -11 36 17.41380
 2018-Aug-28 07:11  m  05 19 47.974652 -11 36 16.75983
 2018-Aug-28 07:12  m  05 19 48.182053 -11 36 16.10608
 2018-Aug-28 07:13  m  05 19 48.389406 -11 36 15.45255
 2018-Aug-28 07:14  m  05 19 48.596711 -11 36 14.79924
 2018-Aug-28 07:15  m  05 19 48.803968 -11 36 14.14616
 2018-Aug-28 07:16  m  05 19 49.011176 -11 36 13.49330
 2018-Aug-28 07:17  m  05 19 49.218336 -11 36 12.84066
 2018-Aug-28 07:18  m  05 19 49.425446 -11 36 12.18824
 2018-Aug-28 07:19  m  05 19 49.632507 -11 36 11.53603
 2018-Aug-28 07:20  m  05 19 49.839518 -11 36 10.88405
 2018-Aug-28 07:21  m  05 19 50.046480 -11 36 10.23229
 2018-Aug-28 07:22  m  05 19 50.253391 -11 36 09.58075
 2018-Aug-28 07:23  m  05 19 50.460252 -11 36 08.92942
 2018-Aug-28 07:24  m  05 19 50.667062 -11 36 08.27831
 2018-Aug-28 07:25  m  05 19 50.873820 -11 36 07.62742
 2018-Aug-28 07:26  m  05 19 51.080528 -11 36 06.97675
 2018-Aug-28 07:27  m  05 19 51.287184 -11 36 06.32629
 2018-Aug-28 07:28  m  05 19 51.493788 -11 36 05.67604
 2018-Aug-28 07:29  m  05 19 51.700340 -11 36 05.02601
 2018-Aug-28 07:30  m  05 19 51.906839 -11 36 04.37620
 2018-Aug-28 07:31  m  05 19 52.113286 -11 36 03.72659
 2018-Aug-28 07:32  m  05 19 52.319679 -11 36 03.07720
 2018-Aug-28 07:33  m  05 19 52.526020 -11 36 02.42803
 2018-Aug-28 07:34  m  05 19 52.732306 -11 36 01.77906
 2018-Aug-28 07:35  m  05 19 52.938539 -11 36 01.13031
 2018-Aug-28 07:36  m  05 19 53.144718 -11 36 00.48177
 2018-Aug-28 07:37  m  05 19 53.350843 -11 35 59.83343
 2018-Aug-28 07:38  m  05 19 53.556913 -11 35 59.18531
 2018-Aug-28 07:39  m  05 19 53.762928 -11 35 58.53740
 2018-Aug-28 07:40  m  05 19 53.968888 -11 35 57.88969
 2018-Aug-28 07:41  m  05 19 54.174793 -11 35 57.24219
 2018-Aug-28 07:42  m  05 19 54.380642 -11 35 56.59490
 2018-Aug-28 07:43  m  05 19 54.586435 -11 35 55.94782
 2018-Aug-28 07:44  m  05 19 54.792171 -11 35 55.30094
 2018-Aug-28 07:45  m  05 19 54.997852 -11 35 54.65427
 2018-Aug-28 07:46  m  05 19 55.203475 -11 35 54.00780
 2018-Aug-28 07:47  m  05 19 55.409042 -11 35 53.36154
 2018-Aug-28 07:48  m  05 19 55.614551 -11 35 52.71548
 2018-Aug-28 07:49  m  05 19 55.820003 -11 35 52.06962
 2018-Aug-28 07:50  m  05 19 56.025397 -11 35 51.42397
 2018-Aug-28 07:51  m  05 19 56.230734 -11 35 50.77851
 2018-Aug-28 07:52  m  05 19 56.436011 -11 35 50.13326
 2018-Aug-28 07:53  m  05 19 56.641231 -11 35 49.48821
 2018-Aug-28 07:54  m  05 19 56.846391 -11 35 48.84336
 2018-Aug-28 07:55  m  05 19 57.051493 -11 35 48.19871
 2018-Aug-28 07:56  m  05 19 57.256535 -11 35 47.55426
 2018-Aug-28 07:57  m  05 19 57.461518 -11 35 46.91000
 2018-Aug-28 07:58  m  05 19 57.666441 -11 35 46.26594
 2018-Aug-28 07:59  m  05 19 57.871304 -11 35 45.62208
 2018-Aug-28 08:00  m  05 19 58.076107 -11 35 44.97842
 2018-Aug-28 08:01  m  05 19 58.280849 -11 35 44.33495
 2018-Aug-28 08:02  m  05 19 58.485531 -11 35 43.69167
 2018-Aug-28 08:03  m  05 19 58.690151 -11 35 43.04859
 2018-Aug-28 08:04  m  05 19 58.894710 -11 35 42.40570
 2018-Aug-28 08:05  m  05 19 59.099208 -11 35 41.76301
 2018-Aug-28 08:06  m  05 19 59.303644 -11 35 41.12051
 2018-Aug-28 08:07  m  05 19 59.508018 -11 35 40.47820
 2018-Aug-28 08:08  m  05 19 59.712330 -11 35 39.83608
 2018-Aug-28 08:09  m  05 19 59.916580 -11 35 39.19414
 2018-Aug-28 08:10  m  05 20 00.120766 -11 35 38.55240
 2018-Aug-28 08:11  m  05 20 00.324890 -11 35 37.91085
 2018-Aug-28 08:12  m  05 20 00.528951 -11 35 37.26949
 2018-Aug-28 08:13  m  05 20 00.732948 -11 35 36.62831
 2018-Aug-28 08:14  m  05 20 00.936882 -11 35 35.98732
 2018-Aug-28 08:15  m  05 20 01.140751 -11 35 35.34652
 2018-Aug-28 08:16  m  05 20 01.344557 -11 35 34.70590
 2018-Aug-28 08:17  m  05 20 01.548298 -11 35 34.06546
 2018-Aug-28 08:18  m  05 20 01.751975 -11 35 33.42521
 2018-Aug-28 08:19  m  05 20 01.955587 -11 35 32.78514
 2018-Aug-28 08:20  m  05 20 02.159134 -11 35 32.14526
 2018-Aug-28 08:21  m  05 20 02.362616 -11 35 31.50555
 2018-Aug-28 08:22  m  05 20 02.566033 -11 35 30.86603
 2018-Aug-28 08:23  m  05 20 02.769383 -11 35 30.22669
 2018-Aug-28 08:24  m  05 20 02.972668 -11 35 29.58752
 2018-Aug-28 08:25  m  05 20 03.175887 -11 35 28.94854
 2018-Aug-28 08:26  m  05 20 03.379039 -11 35 28.30973
 2018-Aug-28 08:27  m  05 20 03.582125 -11 35 27.67111
 2018-Aug-28 08:28  m  05 20 03.785144 -11 35 27.03265
 2018-Aug-28 08:29  m  05 20 03.988096 -11 35 26.39438
 2018-Aug-28 08:30  m  05 20 04.190981 -11 35 25.75628
 2018-Aug-28 08:31  m  05 20 04.393798 -11 35 25.11835
 2018-Aug-28 08:32  m  05 20 04.596548 -11 35 24.48060
 2018-Aug-28 08:33  m  05 20 04.799229 -11 35 23.84302
 2018-Aug-28 08:34  m  05 20 05.001843 -11 35 23.20561
 2018-Aug-28 08:35  m  05 20 05.204389 -11 35 22.56837
 2018-Aug-28 08:36  m  05 20 05.406866 -11 35 21.93131
 2018-Aug-28 08:37  m  05 20 05.609274 -11 35 21.29441
 2018-Aug-28 08:38  m  05 20 05.811613 -11 35 20.65768
 2018-Aug-28 08:39  m  05 20 06.013883 -11 35 20.02112
 2018-Aug-28 08:40  m  05 20 06.216084 -11 35 19.38473
 2018-Aug-28 08:41  m  05 20 06.418216 -11 35 18.74851
 2018-Aug-28 08:42  m  05 20 06.620278 -11 35 18.11245
 2018-Aug-28 08:43  m  05 20 06.822269 -11 35 17.47656
 2018-Aug-28 08:44  m  05 20 07.024191 -11 35 16.84083
 2018-Aug-28 08:45  m  05 20 07.226042 -11 35 16.20526
 2018-Aug-28 08:46  m  05 20 07.427823 -11 35 15.56986
 2018-Aug-28 08:47  m  05 20 07.629533 -11 35 14.93462
 2018-Aug-28 08:48  m  05 20 07.831172 -11 35 14.29954
 2018-Aug-28 08:49  m  05 20 08.032740 -11 35 13.66463
 2018-Aug-28 08:50  m  05 20 08.234237 -11 35 13.02987
 2018-Aug-28 08:51  m  05 20 08.435662 -11 35 12.39527
 2018-Aug-28 08:52  m  05 20 08.637016 -11 35 11.76083
 2018-Aug-28 08:53  m  05 20 08.838297 -11 35 11.12655
 2018-Aug-28 08:54  m  05 20 09.039507 -11 35 10.49242
 2018-Aug-28 08:55  m  05 20 09.240644 -11 35 09.85845
